start=new Date('2022-09-25T00:00:00.000Z').valueOf();
sats=[{"EPOCH":"2022-09-24T19:50:21.149952","TLE_LINE1":"1 51134U 22005AG  22267.82663368 -.00000821  00000-0 -33504-4 0  9996","OBJECT_NAME":"STARLINK-3183","LAUNCH_DATE":"2022-01-19","MEAN_MOTION":"15.08827027","OBJECT_TYPE":"PAYLOAD","BSTAR":"-0.00003350400000","CLASSIFICATION_TYPE":"U","SITE":"AFETR","PERIAPSIS":"538.370","PERIOD":"95.438","MEAN_ELEMENT_THEORY":"SGP4","MEAN_ANOMALY":"310.8034","ARG_OF_PERICENTER":"49.3136","CENTER_NAME":"EARTH","ECCENTRICITY":"0.00020450","FILE":"3582483","TLE_LINE2":"2 51134  53.2173 193.8335 0002045  49.3136 310.8034 15.08827027 39490","SEMIMAJOR_AXIS":"6917.920","TIME_SYSTEM":"UTC","REV_AT_EPOCH":"3949","MEAN_MOTION_DOT":"-0.00000821","APOAPSIS":"541.200","MEAN_MOTION_DDOT":"0.0000000000000","OBJECT_ID":"2022-005AG","ELEMENT_SET_NO":"999","COUNTRY_CODE":"US","INCLINATION":"53.2173","REF_FRAME":"TEME","DECAY_DATE":null,"RA_OF_ASC_NODE":"193.8335","GP_ID":"213380023","NORAD_CAT_ID":"51134","RCS_SIZE":"LARGE","EPHEMERIS_TYPE":"0"},{"SITE":"AFETR","PERIOD":"95.438","MEAN_ELEMENT_THEORY":"SGP4","CENTER_NAME":"EARTH","ARG_OF_PERICENTER":"44.2704","MEAN_ANOMALY":"315.8423","PERIAPSIS":"538.591","LAUNCH_DATE":"2022-01-19","OBJECT_NAME":"STARLINK-3363","EPOCH":"2022-09-24T03:00:47.328192","TLE_LINE1":"1 51135U 22005AH  22267.12554778  .00000864  00000-0  72385-4 0  9999","CLASSIFICATION_TYPE":"U","BSTAR":"0.00007238500000","OBJECT_TYPE":"PAYLOAD","MEAN_MOTION":"15.08837686","MEAN_MOTION_DOT":"0.00000864","REV_AT_EPOCH":"3812","TLE_LINE2":"2 51135  53.2168 207.0054 0001679  44.2704 315.8423 15.08837686 38126","FILE":"3582188","ECCENTRICITY":"0.00016790","TIME_SYSTEM":"UTC","SEMIMAJOR_AXIS":"6917.887","DECAY_DATE":null,"REF_FRAME":"TEME","ELEMENT_SET_NO":"999","OBJECT_ID":"2022-005AH","MEAN_MOTION_DDOT":"0.0000000000000","APOAPSIS":"540.914","INCLINATION":"53.2168","COUNTRY_CODE":"US","NORAD_CAT_ID":"51135","GP_ID":"213370884","EPHEMERIS_TYPE":"0","RCS_SIZE":"LARGE","RA_OF_ASC_NODE":"207.0054"},{"ARG_OF_PERICENTER":"48.9920","PERIOD":"95.437","CENTER_NAME":"EARTH","MEAN_ELEMENT_THEORY":"SGP4","MEAN_ANOMALY":"311.1243","PERIAPSIS":"538.343","SITE":"AFETR","CLASSIFICATION_TYPE":"U","BSTAR":"0.00011275000000","OBJECT_TYPE":"PAYLOAD","MEAN_MOTION":"15.08852142","LAUNCH_DATE":"2022-01-19","OBJECT_NAME":"STARLINK-3253","EPOCH":"2022-09-24T12:34:28.082496","TLE_LINE1":"1 51136U 22005AJ  22267.52393614  .00001507  00000-0  11275-3 0  9999","MEAN_MOTION_DOT":"0.00001507","REV_AT_EPOCH":"3931","TIME_SYSTEM":"UTC","SEMIMAJOR_AXIS":"6917.843","TLE_LINE2":"2 51136  53.2176 205.2129 0001974  48.9920 311.1243 15.08852142 39313","FILE":"3582090","ECCENTRICITY":"0.00019740","DECAY_DATE":null,"REF_FRAME":"TEME","INCLINATION":"53.2176","COUNTRY_CODE":"US","ELEMENT_SET_NO":"999","OBJECT_ID":"2022-005AJ","MEAN_MOTION_DDOT":"0.0000000000000","APOAPSIS":"541.074","EPHEMERIS_TYPE":"0","RCS_SIZE":"LARGE","NORAD_CAT_ID":"51136","GP_ID":"213345687","RA_OF_ASC_NODE":"205.2129"},{"NORAD_CAT_ID":"51137","GP_ID":"213372379","RCS_SIZE":"LARGE","EPHEMERIS_TYPE":"0","RA_OF_ASC_NODE":"206.4547","DECAY_DATE":null,"REF_FRAME":"TEME","OBJECT_ID":"2022-005AK","ELEMENT_SET_NO":"999","APOAPSIS":"541.137","MEAN_MOTION_DDOT":"0.0000000000000","INCLINATION":"53.2181","COUNTRY_CODE":"US","REV_AT_EPOCH":"3815","MEAN_MOTION_DOT":"0.00002001","FILE":"3582188","TLE_LINE2":"2 51137  53.2181 206.4547 0002009  46.7361 313.3799 15.08839457 38157","ECCENTRICITY":"0.00020090","SEMIMAJOR_AXIS":"6917.882","TIME_SYSTEM":"UTC","SITE":"AFETR","PERIOD":"95.438","CENTER_NAME":"EARTH","ARG_OF_PERICENTER":"46.7361","MEAN_ELEMENT_THEORY":"SGP4","MEAN_ANOMALY":"313.3799","PERIAPSIS":"538.357","LAUNCH_DATE":"2022-01-19","EPOCH":"2022-09-24T05:55:40.082016","TLE_LINE1":"1 51137U 22005AK  22267.24699169  .00002001  00000-0  14377-3 0  9999","OBJECT_NAME":"STARLINK-3180","BSTAR":"0.00014377000000","CLASSIFICATION_TYPE":"U","MEAN_MOTION":"15.08839457","OBJECT_TYPE":"PAYLOAD"},{"RA_OF_ASC_NODE":"204.0240","GP_ID":"213406534","NORAD_CAT_ID":"51138","EPHEMERIS_TYPE":"0","RCS_SIZE":"LARGE","APOAPSIS":"540.909","MEAN_MOTION_DDOT":"0.0000000000000","ELEMENT_SET_NO":"999","OBJECT_ID":"2022-005AL","COUNTRY_CODE":"US","INCLINATION":"53.2174","REF_FRAME":"TEME","DECAY_DATE":null,"ECCENTRICITY":"0.00017240","FILE":"3582616","TLE_LINE2":"2 51138  53.2174 204.0240 0001724  47.8982 312.2157 15.08849652 38220","TIME_SYSTEM":"UTC","SEMIMAJOR_AXIS":"6917.851","MEAN_MOTION_DOT":"0.00005146","REV_AT_EPOCH":"3822","OBJECT_NAME":"STARLINK-3177","TLE_LINE1":"1 51138U 22005AL  22267.78426562  .00005146  00000-0  34109-3 0  9992","EPOCH":"2022-09-24T18:49:20.549568","LAUNCH_DATE":"2022-01-19","OBJECT_TYPE":"PAYLOAD","MEAN_MOTION":"15.08849652","CLASSIFICATION_TYPE":"U","BSTAR":"0.00034109000000","SITE":"AFETR","PERIAPSIS":"538.523","PERIOD":"95.437","ARG_OF_PERICENTER":"47.8982","MEAN_ELEMENT_THEORY":"SGP4","MEAN_ANOMALY":"312.2157","CENTER_NAME":"EARTH"},{"CLASSIFICATION_TYPE":"U","BSTAR":"0.00016065000000","OBJECT_TYPE":"PAYLOAD","MEAN_MOTION":"15.08840458","LAUNCH_DATE":"2022-01-19","OBJECT_NAME":"STARLINK-3172","TLE_LINE1":"1 51139U 22005AM  22267.57083653  .00002269  00000-0  16065-3 0  9994","EPOCH":"2022-09-24T13:42:00.276192","PERIOD":"95.438","MEAN_ELEMENT_THEORY":"SGP4","CENTER_NAME":"EARTH","ARG_OF_PERICENTER":"38.9162","MEAN_ANOMALY":"321.1986","PERIAPSIS":"538.246","SITE":"AFETR","TIME_SYSTEM":"UTC","SEMIMAJOR_AXIS":"6917.879","FILE":"3582616","TLE_LINE2":"2 51139  53.2185 204.9994 0002166  38.9162 321.1986 15.08840458 38202","ECCENTRICITY":"0.00021660","MEAN_MOTION_DOT":"0.00002269","REV_AT_EPOCH":"3820","INCLINATION":"53.2185","COUNTRY_CODE":"US","OBJECT_ID":"2022-005AM","ELEMENT_SET_NO":"999","MEAN_MOTION_DDOT":"0.0000000000000","APOAPSIS":"541.242","DECAY_DATE":null,"REF_FRAME":"TEME","RA_OF_ASC_NODE":"204.9994","EPHEMERIS_TYPE":"0","RCS_SIZE":"LARGE","NORAD_CAT_ID":"51139","GP_ID":"213406284"},{"SITE":"AFETR","PERIAPSIS":"538.402","CENTER_NAME":"EARTH","PERIOD":"95.438","MEAN_ANOMALY":"312.3298","MEAN_ELEMENT_THEORY":"SGP4","ARG_OF_PERICENTER":"47.7859","OBJECT_NAME":"STARLINK-3175","EPOCH":"2022-09-24T06:00:58.085856","TLE_LINE1":"1 51140U 22005AN  22267.25067229  .00000018  00000-0  19228-4 0  9997","LAUNCH_DATE":"2022-01-19","OBJECT_TYPE":"PAYLOAD","MEAN_MOTION":"15.08838055","CLASSIFICATION_TYPE":"U","BSTAR":"0.00001922800000","MEAN_MOTION_DOT":"0.00000018","REV_AT_EPOCH":"3815","ECCENTRICITY":"0.00019510","TLE_LINE2":"2 51140  53.2189 206.4332 0001951  47.7859 312.3298 15.08838055 38155","FILE":"3582188","TIME_SYSTEM":"UTC","SEMIMAJOR_AXIS":"6917.886","DECAY_DATE":null,"REF_FRAME":"TEME","MEAN_MOTION_DDOT":"0.0000000000000","APOAPSIS":"541.101","OBJECT_ID":"2022-005AN","ELEMENT_SET_NO":"999","COUNTRY_CODE":"US","INCLINATION":"53.2189","GP_ID":"213371636","NORAD_CAT_ID":"51140","EPHEMERIS_TYPE":"0","RCS_SIZE":"LARGE","RA_OF_ASC_NODE":"206.4332"},{"DECAY_DATE":null,"REF_FRAME":"TEME","INCLINATION":"53.2165","COUNTRY_CODE":"US","ELEMENT_SET_NO":"999","OBJECT_ID":"2022-005AP","APOAPSIS":"541.046","MEAN_MOTION_DDOT":"0.0000000000000","EPHEMERIS_TYPE":"0","RCS_SIZE":"LARGE","NORAD_CAT_ID":"51141","GP_ID":"213380036","RA_OF_ASC_NODE":"205.0341","CENTER_NAME":"EARTH","PERIOD":"95.437","ARG_OF_PERICENTER":"47.4177","MEAN_ANOMALY":"312.6979","MEAN_ELEMENT_THEORY":"SGP4","PERIAPSIS":"538.352","SITE":"AFETR","CLASSIFICATION_TYPE":"U","BSTAR":"0.00028512000000","OBJECT_TYPE":"PAYLOAD","MEAN_MOTION":"15.08855165","LAUNCH_DATE":"2022-01-19","OBJECT_NAME":"STARLINK-3179","EPOCH":"2022-09-24T13:31:24.183840","TLE_LINE1":"1 51141U 22005AP  22267.56347435  .00004254  00000-0  28512-3 0  9993","MEAN_MOTION_DOT":"0.00004254","REV_AT_EPOCH":"3931","TIME_SYSTEM":"UTC","SEMIMAJOR_AXIS":"6917.834","TLE_LINE2":"2 51141  53.2165 205.0341 0001947  47.4177 312.6979 15.08855165 39319","FILE":"3582473","ECCENTRICITY":"0.00019470"},{"REV_AT_EPOCH":"130","MEAN_MOTION_DOT":"-0.00015049","SEMIMAJOR_AXIS":"6917.818","TIME_SYSTEM":"UTC","TLE_LINE2":"2 51142  53.2173 193.4495 0001690  47.6320 101.9201 15.08860284  1309","FILE":"3582616","ECCENTRICITY":"0.00016900","MEAN_ELEMENT_THEORY":"SGP4","PERIOD":"95.436","CENTER_NAME":"EARTH","ARG_OF_PERICENTER":"47.6320","MEAN_ANOMALY":"101.9201","PERIAPSIS":"538.514","SITE":"AFETR","BSTAR":"-0.00092890000000","CLASSIFICATION_TYPE":"U","MEAN_MOTION":"15.08860284","OBJECT_TYPE":"PAYLOAD","LAUNCH_DATE":"2022-01-19","EPOCH":"2022-09-24T22:00:00.999936","TLE_LINE1":"1 51142U 22005AQ  22267.91667824 -.00015049  00000-0 -92890-3 0  9996","OBJECT_NAME":"STARLINK-3369","RCS_SIZE":"LARGE","EPHEMERIS_TYPE":"0","NORAD_CAT_ID":"51142","GP_ID":"213406034","RA_OF_ASC_NODE":"193.4495","DECAY_DATE":null,"REF_FRAME":"TEME","INCLINATION":"53.2173","COUNTRY_CODE":"US","OBJECT_ID":"2022-005AQ","ELEMENT_SET_NO":"999","MEAN_MOTION_DDOT":"0.0000000000000","APOAPSIS":"540.853"},{"RA_OF_ASC_NODE":"214.5111","NORAD_CAT_ID":"51143","GP_ID":"213406785","RCS_SIZE":"LARGE","EPHEMERIS_TYPE":"0","ELEMENT_SET_NO":"999","OBJECT_ID":"2022-005AR","APOAPSIS":"540.745","MEAN_MOTION_DDOT":"0.0000000000000","INCLINATION":"53.2157","COUNTRY_CODE":"US","DECAY_DATE":null,"REF_FRAME":"TEME","FILE":"3582616","TLE_LINE2":"2 51143  53.2157 214.5111 0001474  72.3356 287.7797 15.08846660 38075","ECCENTRICITY":"0.00014740","SEMIMAJOR_AXIS":"6917.860","TIME_SYSTEM":"UTC","REV_AT_EPOCH":"3807","MEAN_MOTION_DOT":"0.00002119","LAUNCH_DATE":"2022-01-19","EPOCH":"2022-09-24T16:19:38.031456","TLE_LINE1":"1 51143U 22005AR  22267.68030129  .00002119  00000-0  15114-3 0  9999","OBJECT_NAME":"STARLINK-3184","BSTAR":"0.00015114000000","CLASSIFICATION_TYPE":"U","MEAN_MOTION":"15.08846660","OBJECT_TYPE":"PAYLOAD","SITE":"AFETR","PERIOD":"95.437","CENTER_NAME":"EARTH","MEAN_ELEMENT_THEORY":"SGP4","ARG_OF_PERICENTER":"72.3356","MEAN_ANOMALY":"287.7797","PERIAPSIS":"538.705"}];
